[Satellite]
VERSION=1.1
NAME=FLOCK 2P-5
NICKNAME=FLOCK 2P-5
TLE1=1 41616U 16040T   18020.87104322  .00003225  00000-0  13674-3 0  9993
TLE2=2 41616  97.4365  87.1049 0011369  46.7648 313.4536 15.23793170 87781
